{
  "type": "FeatureCollection",
  "features": [
    {
      "type": "Feature",
      "properties": {
        "norad_id": 64903,
        "name": "CO3D 1",
        "group": "resource",
        "lat": 65.92564092400536,
        "lon": 56.73533493529359,
        "alt_km": 498.1889454686534,
        "timestamp": "2025-12-23T14:49:08.987778+00:00",
        "meta_object_name": "CO3D 1",
        "meta_object_id": "2025-156E",
        "meta_epoch": "2025-12-23T06:37:36.050016",
        "meta_mean_motion": 15.20207033,
        "meta_eccentricity": 8.984e-05,
        "meta_inclination": 97.4338,
        "meta_ra_of_asc_node": 73.391,
        "meta_arg_of_pericenter": 77.2276,
        "meta_mean_anomaly": 282.9059,
        "meta_ephemeris_type": 0,
        "meta_classification_type": "U",
        "meta_norad_cat_id": 64903,
        "meta_element_set_no": 999,
        "meta_rev_at_epoch": 2280,
        "meta_bstar": 0.00027022852,
        "meta_mean_motion_dot": 5.788e-05,
        "meta_mean_motion_ddot": 0,
        "tle_line1": "1 64903U 25156E   25357.27611169  .00005788  00000+0  27023-3 0  9990",
        "tle_line2": "2 64903  97.4338  73.3910 0000898  77.2276 282.9059 15.20207033 22807"
      },
      "geometry": {
        "type": "Point",
        "coordinates": [
          56.73533493529359,
          65.92564092400536
        ]
      }
    },
    {
      "type": "Feature",
      "properties": {
        "norad_id": 66514,
        "name": "SENTINEL-6B",
        "group": "resource",
        "lat": -30.37320490422076,
        "lon": -25.05375957564384,
        "alt_km": 1339.3121844735479,
        "timestamp": "2025-12-23T14:49:08.987789+00:00",
        "meta_object_name": "SENTINEL-6B",
        "meta_object_id": "2025-264A",
        "meta_epoch": "2025-12-23T02:27:52.423776",
        "meta_mean_motion": 12.8092954,
        "meta_eccentricity": 0.00078893,
        "meta_inclination": 66.0396,
        "meta_ra_of_asc_node": 140.9099,
        "meta_arg_of_pericenter": 269.9741,
        "meta_mean_anomaly": 90.037,
        "meta_ephemeris_type": 0,
        "meta_classification_type": "U",
        "meta_norad_cat_id": 66514,
        "meta_element_set_no": 999,
        "meta_rev_at_epoch": 461,
        "meta_bstar": -1.0381303e-05,
        "meta_mean_motion_dot": -6.3e-07,
        "meta_mean_motion_ddot": 0,
        "tle_line1": "1 66514U 25264A   25357.10269009 -.00000063  00000+0 -10381-4 0  9997",
        "tle_line2": "2 66514  66.0396 140.9099 0007889 269.9741  90.0370 12.80929540  4616"
      },
      "geometry": {
        "type": "Point",
        "coordinates": [
          -25.05375957564384,
          -30.37320490422076
        ]
      }
    }
  ]
}